SL-12 R/B(2)            
1 15772U 85042D   26194.48544868 -.00000045  00000+0  11484-5 0  9992
2 15772  71.1066 181.9538 0037275 288.6952 206.4049 14.22010720132273
SL-14 R/B               
1 15945U 85069B   26194.15193310  .00000236  00000+0  23808-4 0  9992
2 15945  82.5264 266.9480 0019929 133.6634 226.6239 14.86534369191475
SL-16 R/B               
1 16182U 85097B   26194.47206027  .00000039  00000+0  43581-4 0  9993
2 16182  71.0008 235.7407 0005558  55.0997  43.7789 14.16612325105041
SL-14 R/B               
1 16496U 86006B   26194.36319660  .00000237  00000+0  22387-4 0  9999
2 16496  82.5282 141.4812 0075329 215.0062 144.6192 14.86967487167885
COSMOS 1743             
1 16719U 86034A   26194.37275185  .00039740  00000+0  33696-3 0  9997
2 16719  82.5285 300.8401 0005352 182.2031 177.9208 15.69473510199895
SL-14 R/B               
1 16792U 86046B   26194.41977369  .00000248  00000+0  25694-4 0  9990
2 16792  82.4838 321.3879 0023375 168.7842 191.3901 14.85689769145073
SL-14 R/B               
1 16882U 86055B   26194.47258377  .00000216  00000+0  22044-4 0  9998
2 16882  82.5201   8.4160 0017304 276.5256 113.2662 14.85739602138044
AJISAI (EGS)            
1 16908U 86061A   26194.47334019 -.00000098  00000+0 -23264-5 0  9998
2 16908  50.0100  66.5661 0011094 247.4949 169.4783 12.44516654483669
SL-14 R/B               
1 17567U 87024B   26194.47479552  .00000240  00000+0  24439-4 0  9993
2 17567  82.5296 334.5407 0017663 199.5946 160.4594 14.86230978106815
COSMOS 1833             
1 17589U 87027A   26193.94637464  .00000112  00000+0  85672-4 0  9993
2 17589  70.9212  62.7271 0024084  12.3136 347.8569 14.13065950 28019
SL-16 R/B               
1 17590U 87027B   26194.47340832 -.00000014  00000+0  16609-4 0  9990
2 17590  71.0031  11.4345 0007139 283.4589  76.5739 14.17173192 33169
SL-14 R/B               
1 17912U 87038B   26194.46718047  .00000211  00000+0  21513-4 0  9994
2 17912  82.5012 178.3175 0020774 107.4891 252.8597 14.85460782 97900
COSMOS 1844             
1 17973U 87041A   26194.27119578  .00000133  00000+0  93890-4 0  9998
2 17973  70.8997 129.2878 0031444 198.0297 161.9712 14.14580064 21348
SL-14 R/B               
1 18153U 87055B   26194.48920315  .00000201  00000+0  20346-4 0  9998
2 18153  82.4973 230.4337 0019522 321.0439  38.9370 14.85726392 88616
COSMOS 1867             
1 18187U 87060A   26194.47077234 -.00000064  00000+0  13550-4 0  9990
2 18187  65.0119 314.4492 0017114 282.0079  77.9087 14.31518366 37947
SL-14 R/B               
1 18749U 88001B   26194.29103475  .00000219  00000+0  22428-4 0  9992
2 18749  82.5122  77.2146 0018020 178.0088 182.1203 14.85626071 60677
COSMOS 1933             
1 18958U 88020A   26194.32504138  .00001742  00000+0  81997-4 0  9998
2 18958  82.5141 126.5501 0005784 112.1224 248.0624 15.18882205 69293
SL-3 R/B                
1 19046U 88032B   26194.49380456  .00002285  00000+0  10528-3 0  9997
2 19046  97.5268 177.5131 0026348 151.4392 208.8293 15.21023878 71223
SL-16 R/B               
1 19120U 88039B   26194.33275205 -.00000071  00000+0 -10938-4 0  9994
2 19120  71.0123 162.8729 0020733 152.3374 207.8859 14.19631390976215
COSMOS 1953             
1 19210U 88050A   26194.50369949  .00004785  00000+0  16173-3 0  9995
2 19210  82.5060  31.4869 0011652  45.4060 314.8129 15.30323655 57015
SL-8 R/B                
1 19257U 88053B   26194.50199434  .00000127  00000+0  49609-4 0  9996
2 19257  74.0460 240.5503 0019649  26.6543  78.4735 14.38977722994692
COSMOS 1975             
1 19573U 88093A   26194.45447292  .00003971  00000+0  13677-3 0  9998
2 19573  82.5193 351.2709 0012553  87.7925 272.4753 15.29649009 38620
SL-14 R/B               
1 19574U 88093B   26194.33710463  .00000213  00000+0  21618-4 0  9990
2 19574  82.5317 284.0962 0020171 346.6395  79.0021 14.85759423 19672
SL-16 R/B               
1 19650U 88102B   26194.49310560 -.00000183  00000+0 -67981-4 0  9998
2 19650  70.9980 246.7888 0014412 188.2611 171.8277 14.16166996944704
INTERCOSMOS 24          
1 20261U 89080A   26194.46285980  .00000199  00000+0  54318-4 0  9993
2 20261  82.6048  22.5424 1187299   0.9667 359.3347 12.59691504682636
SL-14 R/B               
1 20262U 89080C   26194.16242154  .00000066  00000+0  19255-4 0  9991
2 20262  82.5936  92.6184 1228631 257.9435  88.1663 12.50578237675836
DELTA 1 R/B             
1 20323U 89089B   26194.49777797  .00000145  00000+0  44253-4 0  9994
2 20323  97.0634  21.8455 0070645  85.2297 275.6963 14.50747218913977
ARIANE 40 R/B           
1 20443U 90005H   26194.17219663  .00000110  00000+0  48495-4 0  9999
2 20443  98.2946 250.9785 0010137 179.9827 180.1364 14.39940196910867
DELTA 2 R/B(1)          
1 20453U 90008B   26193.92755865  .00092909  00000+0  57423-3 0  9991
2 20453  35.6002  62.9055 0060055 354.6112   5.3978 15.73246033945753
COSMOS 2058             
1 20465U 90010A   26194.34093977  .00001568  00000+0  89226-4 0  9991
2 20465  82.4672 283.5614 0007885 257.6747 102.3601 15.12150732961223
SL-14 R/B               
1 20466U 90010B   26194.33563850  .00000195  00000+0  20719-4 0  9990
2 20466  82.5034 149.3886 0018314 243.8747 116.0584 14.83662445947113
